STARLETTE               
1 07646U 75010A   22316.16886457 -.00000114  00000+0  24516-4 0  9993
2 07646  49.8233 247.1824 0205745  45.5209 316.2304 13.82314547412903
LAGEOS 1                
1 08820U 76039A   22316.22757740  .00000011  00000+0  00000+0 0  9991
2 08820 109.8517  89.6154 0045148 223.4611 167.1486  6.38664968829700
AJISAI (EGS)            
1 16908U 86061A   22316.53451718 -.00000072  00000+0  18222-3 0  9990
2 16908  50.0085 223.7089 0011490  78.7923 101.0178 12.44497968317289
COSMOS 1989 (ETALON 1)  
1 19751U 89001C   22315.59831733  .00000039  00000+0  00000+0 0  9993
2 19751  64.3428 117.3233 0023873 213.5361 115.1316  2.13156332263438
COSMOS 2024 (ETALON 2)  
1 20026U 89039C   22315.94662530 -.00000071  00000+0  00000+0 0  9994
2 20026  65.5187 355.3860 0018668 218.7271 311.6499  2.13204420260493
LAGEOS 2                
1 22195U 92070B   22314.53678823 -.00000009  00000+0  00000+0 0  9999
2 22195  52.6813  17.4812 0138263 332.6811  28.1893  6.47293394710316
STELLA                  
1 22824U 93061B   22316.17204427 -.00000031  00000+0  63257-5 0  9990
2 22824  98.9544 340.7615 0007453  88.4845   7.1590 14.27394941517617
LARES                   
1 38077U 12006A   22315.87777295 -.00000059  00000+0 -12755-3 0  9997
2 38077  69.4968  15.4925 0010505 213.0691 146.9686 12.54930778492403
